AEROCUBE 8D             
1 41852U 16067E   25087.44018982  .00013849  00000+0  72195-3 0  9999
2 41852  98.1133 280.0942 0003866 216.2102 143.8868 15.16099480458344
AEROCUBE 8C             
1 41853U 16067F   25087.45154655  .00014727  00000+0  76495-3 0  9992
2 41853  98.0971 278.0374 0007044 150.6014 209.5614 15.16197772458336
PROMETHEUS 2-1          
1 41854U 16067G   25087.02417180  .00074855  00000+0  18233-2 0  9994
2 41854  98.0873 292.1469 0007981 153.7876 206.3774 15.40615926459055
PROMETHEUS 2-3          
1 41855U 16067H   25087.29232927  .00058149  00000+0  14214-2 0  9991
2 41855  98.0812 291.6650 0006946 162.7366 197.4115 15.40593040459094
CORVUS BC2              
1 42846U 17042X   25087.45812905  .00007379  00000+0  56398-3 0  9993
2 42846  97.3667 263.6199 0013815 185.4246 174.6832 15.02139956420051
CORVUS BC1              
1 42847U 17042Y   25087.45449939  .00007925  00000+0  60176-3 0  9993
2 42847  97.3686 264.0874 0012987 165.5626 194.5973 15.02374962420075
MIRATA                  
1 43015U 17073C   25087.45266369  .00085173  00000+0  18950-2 0  9992
2 43015  97.5516 339.5667 0100224 351.6572   8.3001 15.38115179399526
MAKERSAT 0              
1 43016U 17073D   25087.39585965  .00029373  00000+0  12460-2 0  9992
2 43016  97.5317 326.3777 0155765  33.9612 327.1472 15.12637318398661
SIRION PATHFINDER-2     
1 43759U 18099B   25087.39575296  .00009595  00000+0  61259-3 0  9996
2 43759  97.4876 142.0931 0010693  45.7156 314.4948 15.08827994345275
CORVUS BC4              
1 43767U 18099K   25087.09110788  .00012671  00000+0  83856-3 0  9999
2 43767  97.4684 137.9489 0010673  97.2767 262.9675 15.07428223345084
MOVE-II                 
1 43780U 18099Y   25087.14812811  .00121741  00000+0  20645-2 0  9991
2 43780  97.4740 158.6557 0001385  91.3385 268.8025 15.51069427346338
SPACEBEE-7              
1 43816U 18099BL  25087.14194427  .00042759  00000+0  14323-2 0  9994
2 43816  97.5040 156.2511 0005812  24.7396 335.4122 15.30792575345542
SHIELDS 1               
1 43850U 18104B   25087.43397332  .00042311  00000+0  61839-3 0  9990
2 43850  85.0119  87.8547 0010757  79.1744 281.0726 15.55385397350068
SONATE                  
1 44400U 19038Q   25087.08466187  .00138001  00000+0  12498-2 0  9993
2 44400  97.7034 105.6440 0010459 148.4771 211.7118 15.67557254317970
DUCHIFAT-3              
1 44854U 19089C   25087.38038421  .00061333  00000+0  15427-2 0  9999
2 44854  36.9455  98.1877 0005153 278.0702  81.9467 15.38879341291702
M2 PATHFINDER           
1 45727U 20037E   25087.45347238  .00008945  00000+0  69607-3 0  9991
2 45727  97.8093 269.5899 0011929 225.9360 134.0882 15.01437964258539
NETSAT-4                
1 46504U 20068U   25087.38689417  .00024993  00000+0  92696-3 0  9994
2 46504  97.8407  61.2462 0010823  97.2917 262.9552 15.27544879247361
NETSAT-3                
1 46505U 20068V   25087.44447442  .00021892  00000+0  84282-3 0  9999
2 46505  97.8400  60.4122 0010105 105.0913 255.1443 15.26343942247344
NETSAT-1                
1 46506U 20068W   25087.41326260  .00016883  00000+0  73609-3 0  9996
2 46506  97.8424  58.7069 0009100 115.5761 244.6415 15.22218578247222
NETSAT-2                
1 46507U 20068X   25087.42550698  .00023504  00000+0  88036-3 0  9990
2 46507  97.8396  60.8183 0008398 116.1945 244.0157 15.27254769247315
WILDTRACKCUBE-SIMBA     
1 47941U 21022K   25087.42390788  .00042871  00000+0  10687-2 0  9990
2 47941  97.4308 350.5501 0009544 202.9103 157.1718 15.40049129221916
GRBALPHA                
1 47959U 21022AD  25087.40867209  .00156845  00000+0  16652-2 0  9999
2 47959  97.4261 356.7840 0007822 162.2934 197.8598 15.63525310221142
LEDSAT                  
1 49069U 21073D   25087.36392344  .00070309  00000+0  12347-2 0  9994
2 49069  97.3955 166.3915 0010262 343.5220  16.5697 15.50226057200053
ROBUSTA-1F (MTCUBE 2)   
1 53109U 22080E   25086.97488729 -.00000003  00000+0  00000+0 0  9997
2 53109  70.1193  93.4246 0008497  23.2644 336.8399  6.42584447 63394
SITRO-AIS 5 (KATYS)     
1 57176U 23091L   25087.43173379  .00018097  00000+0  89379-3 0  9993
2 57176  97.5679 144.3232 0014214 218.9630 141.0581 15.17839778 96473
SITRO-AIS 6 (CHIRKIN)   
1 57192U 23091AC  25087.41513294  .00016668  00000+0  82526-3 0  9992
2 57192  97.5678 144.3283 0014110 218.2852 141.7381 15.17771691 96474
SITRO-AIS 8 (ANOKHIN)   
1 57193U 23091AD  25087.38575945  .00019224  00000+0  91940-3 0  9991
2 57193  97.5671 144.6590 0013750 218.6877 141.3373 15.18953048 96490
SITRO-AIS 7 (FARTUSHNIY)
1 57194U 23091AE  25087.43247101  .00017931  00000+0  88938-3 0  9994
2 57194  97.5676 144.2950 0014017 219.4184 140.6030 15.17695600 96475
SITRO-AIS 10 (BURDAEV)  
1 57199U 23091AK  25087.38847117  .00022258  00000+0  97645-3 0  9999
2 57199  97.5683 146.6149 0009968 201.2889 158.7933 15.21934913 96610
SITRO-AIS 9 (SHCHUKIN)  
1 57201U 23091AM  25087.39822204  .00021367  00000+0  94137-3 0  9997
2 57201  97.5678 146.5614 0009930 201.1411 158.9415 15.21798739 96614
SITRO-AIS 12 (SMIRENNIY)
1 57204U 23091AQ  25087.39006383  .00022042  00000+0  96520-3 0  9991
2 57204  97.5688 146.8030 0009983 195.5784 164.5146 15.21999902 96620
SITRO-AIS 11 (SHEFFER)  
1 57208U 23091AU  25087.41752229  .00021324  00000+0  92938-3 0  9996
2 57208  97.5687 146.9007 0009808 194.9811 165.1136 15.22168262 96633
VERONIKA                
1 58261U 23174F   25087.32346197  .00103529  00000+0  16777-2 0  9995
2 58261  97.4196 170.1209 0006274 292.6089  67.4499 15.52397031 77251
ROBUSTA-1E (ENSO)       
1 58470U 23185J   25087.44199383  .00058304  00000+0  11506-2 0  9990
2 58470  97.3810 160.6626 0006573 343.1216  16.9814 15.46958105 73690
SITRO-AIS 29            
1 59052U 24039B   25087.47425836  .00244800  00000+0  17049-2 0  9990
2 59052  97.4133  60.4467 0003810 186.5608 173.5607 15.73637417 60451
SITRO-AIS 30            
1 59053U 24039C   25087.44443273  .00220223  00000+0  16964-2 0  9991
2 59053  97.4127  60.1645 0003489 200.2915 159.8210 15.71315698 60423
SITRO-AIS 31            
1 59054U 24039D   25087.35944429  .00236979  00000+0  17114-2 0  9994
2 59054  97.4146  60.2982 0003243 196.5452 163.5707 15.72805864 60446
SITRO-AIS 33            
1 59055U 24039E   25087.45286009  .00250913  00000+0  17838-2 0  9996
2 59055  97.4126  60.4788 0003499 188.0193 172.1016 15.73136609 60457
SITRO-AIS 35            
1 59056U 24039F   25087.43460930  .00254952  00000+0  17741-2 0  9992
2 59056  97.4138  60.5100 0003128 184.1333 175.9905 15.73630687 60455
SITRO-AIS 32            
1 59057U 24039G   25087.45265558  .00231861  00000+0  17380-2 0  9997
2 59057  97.4146  60.3414 0003166 195.1772 164.9397 15.71935287 60446
SITRO-AIS 34            
1 59058U 24039H   25087.45490716  .00243914  00000+0  17354-2 0  9997
2 59058  97.4130  60.4818 0003465 185.6558 174.4668 15.73138088 60451
SITRO-AIS 36            
1 59059U 24039J   25087.37303393  .00236353  00000+0  17119-2 0  9991
2 59059  97.4121  60.4192 0003223 184.6103 175.5132 15.72738175 60443
SITRO-AIS 49            
1 59060U 24039K   25087.42700924  .00225635  00000+0  17036-2 0  9999
2 59060  97.4136  60.3599 0003372 194.2170 165.8999 15.71780153 60442
SITRO-AIS 50            
1 59061U 24039L   25087.22255431  .00266183  00000+0  17731-2 0  9991
2 59061  97.4121  60.4632 0003731 181.3372 178.7884 15.74619171 60435
SITRO-AIS 51            
1 59062U 24039M   25087.20200638  .00275178  00000+0  17921-2 0  9994
2 59062  97.4112  60.4919 0003846 179.1908 180.9364 15.75118392 60439
SITRO-AIS 52            
1 59063U 24039N   25087.23952513  .00274205  00000+0  17669-2 0  9993
2 59063  97.4133  60.6123 0003313 180.3632 179.7631 15.75368658 60445
SITRO-AIS 25            
1 59066U 24039R   25087.46499049  .00007925  00000+0  67724-3 0  9992
2 59066  95.3781 290.2923 0159788  81.1178 280.8097 14.88331116 58319
SITRO-AIS 26            
1 59067U 24039S   25087.48368614  .00008597  00000+0  73705-3 0  9990
2 59067  95.3779 290.2754 0159913  81.2250 280.7044 14.88185155 58312
SITRO-AIS 27            
1 59068U 24039T   25087.49440769  .00008552  00000+0  72844-3 0  9998
2 59068  95.3781 290.3812 0159240  80.6807 281.2383 14.88499465 58321
SITRO-AIS 28            
1 59071U 24039U   25087.48346583  .00008329  00000+0  70921-3 0  9996
2 59071  95.3781 290.3958 0159048  80.6378 281.2787 14.88538862 58328
GRBBETA                 
1 60237U 24128C   25087.38401173  .00008894  00000+0  68060-3 0  9995
2 60237  61.9939 334.6123 0045026  41.8225 318.6292 15.01717349 39201
OOV-CUBE (TUBSAT-30)    
1 60240U 24128F   25087.40159721  .00006217  00000+0  50775-3 0  9992
2 60240  61.9981 336.4355 0044077  37.9434 322.4747 14.99661904 39188
ROBUSTA-3A (MEDITERRAN*)
1 60243U 24128J   25087.37670019  .00014384  00000+0  10498-2 0  9990
2 60243  61.9906 334.4890 0043198  35.0260 325.3658 15.03194679 39212
LASARSAT                
1 62391U 24247Q   25087.32373770  .00028077  00000+0  11836-2 0  9998
2 62391  44.9935 198.1351 0007082 315.9275  44.1041 15.22874464 14882
CROCUBE                 
1 62394U 24247T   25087.32472501  .00029028  00000+0  12201-2 0  9997
2 62394  44.9925 198.1372 0007670 317.1705  42.8578 15.22953658 14885
